ORBCOMM FM24 [-]        
1 25478U 98053D   23309.93329265  .00002703  00000+0  99230-3 0  9994
2 25478  45.0081 175.3132 0000837 117.3053 242.7879 14.34862273312720
ORBCOMM FM25 [-]        
1 25479U 98053E   23309.89742689  .00003470  00000+0  12598-2 0  9992
2 25479  45.0063 173.7170 0003081 170.4965 189.5941 14.34842230313013
ORBCOMM FM26 [-]        
1 25480U 98053F   23309.90910483  .00002404  00000+0  89579-3 0  9995
2 25480  45.0065 167.0796 0005075 198.0431 162.0236 14.34399416312965
ORBCOMM FM27 [+]        
1 25481U 98053G   23310.02181788  .00003547  00000+0  12874-2 0  9991
2 25481  45.0048 173.3872 0000982   8.1421 351.9441 14.34817851313005
ORBCOMM FM28 [-]        
1 25482U 98053H   23309.72073193  .00002530  00000+0  92380-3 0  9999
2 25482  45.0043 113.9362 0004182 216.1410 143.9155 14.35298355313587
ORBCOMM FM30 [-]        
1 25980U 99065A   23309.81925699  .00001800  00000+0  68152-3 0  9992
2 25980  45.0339 352.8491 0007680 289.4099  70.5918 14.34526587249745
ORBCOMM FM31 [-]        
1 25981U 99065B   23310.13467502  .00002438  00000+0  90509-3 0  9993
2 25981  45.0250 345.2057 0004501 301.1768  58.8638 14.34561459250316
ORBCOMM FM32 [+]        
1 25982U 99065C   23309.98122196  .00003329  00000+0  12431-2 0  9999
2 25982  45.0176 358.3633 0006446 308.1538  51.8727 14.33502183250108
