<?xml version="1.0" encoding="UTF-8"?>
<ndm xmlns:xsi="http://www.w3.org/2001/XMLSchema-instance" xsi:noNamespaceSchemaLocation="https://sanaregistry.org/r/ndmxml_unqualified/ndmxml-2.0.0-master-2.0.xsd">
<omm id="CCSDS_OMM_VERS" version="2.0">
<header><CREATION_DATE/><ORIGINATOR/></header><body><segment><metadata><OBJECT_NAME>ORBCOMM FM24 [-]</OBJECT_NAME><OBJECT_ID>1998-053D</OBJECT_ID><CENTER_NAME>EARTH</CENTER_NAME><REF_FRAME>TEME</REF_FRAME><TIME_SYSTEM>UTC</TIME_SYSTEM><MEAN_ELEMENT_THEORY>SGP4</MEAN_ELEMENT_THEORY></metadata><data><meanElements><EPOCH>2023-11-05T22:23:56.484960</EPOCH><MEAN_MOTION>14.34862273</MEAN_MOTION><ECCENTRICITY>.0000837</ECCENTRICITY><INCLINATION>45.0081</INCLINATION><RA_OF_ASC_NODE>175.3132</RA_OF_ASC_NODE><ARG_OF_PERICENTER>117.3053</ARG_OF_PERICENTER><MEAN_ANOMALY>242.7879</MEAN_ANOMALY></meanElements><tleParameters><EPHEMERIS_TYPE>0</EPHEMERIS_TYPE><CLASSIFICATION_TYPE>U</CLASSIFICATION_TYPE><NORAD_CAT_ID>25478</NORAD_CAT_ID><ELEMENT_SET_NO>999</ELEMENT_SET_NO><REV_AT_EPOCH>31272</REV_AT_EPOCH><BSTAR>.9923E-3</BSTAR><MEAN_MOTION_DOT>.2703E-4</MEAN_MOTION_DOT><MEAN_MOTION_DDOT>0</MEAN_MOTION_DDOT></tleParameters></data></segment></body></omm>
<omm id="CCSDS_OMM_VERS" version="2.0">
<header><CREATION_DATE/><ORIGINATOR/></header><body><segment><metadata><OBJECT_NAME>ORBCOMM FM25 [-]</OBJECT_NAME><OBJECT_ID>1998-053E</OBJECT_ID><CENTER_NAME>EARTH</CENTER_NAME><REF_FRAME>TEME</REF_FRAME><TIME_SYSTEM>UTC</TIME_SYSTEM><MEAN_ELEMENT_THEORY>SGP4</MEAN_ELEMENT_THEORY></metadata><data><meanElements><EPOCH>2023-11-05T21:32:17.683296</EPOCH><MEAN_MOTION>14.34842230</MEAN_MOTION><ECCENTRICITY>.0003081</ECCENTRICITY><INCLINATION>45.0063</INCLINATION><RA_OF_ASC_NODE>173.7170</RA_OF_ASC_NODE><ARG_OF_PERICENTER>170.4965</ARG_OF_PERICENTER><MEAN_ANOMALY>189.5941</MEAN_ANOMALY></meanElements><tleParameters><EPHEMERIS_TYPE>0</EPHEMERIS_TYPE><CLASSIFICATION_TYPE>U</CLASSIFICATION_TYPE><NORAD_CAT_ID>25479</NORAD_CAT_ID><ELEMENT_SET_NO>999</ELEMENT_SET_NO><REV_AT_EPOCH>31301</REV_AT_EPOCH><BSTAR>.12598E-2</BSTAR><MEAN_MOTION_DOT>.347E-4</MEAN_MOTION_DOT><MEAN_MOTION_DDOT>0</MEAN_MOTION_DDOT></tleParameters></data></segment></body></omm>
<omm id="CCSDS_OMM_VERS" version="2.0">
<header><CREATION_DATE/><ORIGINATOR/></header><body><segment><metadata><OBJECT_NAME>ORBCOMM FM26 [-]</OBJECT_NAME><OBJECT_ID>1998-053F</OBJECT_ID><CENTER_NAME>EARTH</CENTER_NAME><REF_FRAME>TEME</REF_FRAME><TIME_SYSTEM>UTC</TIME_SYSTEM><MEAN_ELEMENT_THEORY>SGP4</MEAN_ELEMENT_THEORY></metadata><data><meanElements><EPOCH>2023-11-05T21:49:06.657312</EPOCH><MEAN_MOTION>14.34399416</MEAN_MOTION><ECCENTRICITY>.0005075</ECCENTRICITY><INCLINATION>45.0065</INCLINATION><RA_OF_ASC_NODE>167.0796</RA_OF_ASC_NODE><ARG_OF_PERICENTER>198.0431</ARG_OF_PERICENTER><MEAN_ANOMALY>162.0236</MEAN_ANOMALY></meanElements><tleParameters><EPHEMERIS_TYPE>0</EPHEMERIS_TYPE><CLASSIFICATION_TYPE>U</CLASSIFICATION_TYPE><NORAD_CAT_ID>25480</NORAD_CAT_ID><ELEMENT_SET_NO>999</ELEMENT_SET_NO><REV_AT_EPOCH>31296</REV_AT_EPOCH><BSTAR>.89579E-3</BSTAR><MEAN_MOTION_DOT>.2404E-4</MEAN_MOTION_DOT><MEAN_MOTION_DDOT>0</MEAN_MOTION_DDOT></tleParameters></data></segment></body></omm>
<omm id="CCSDS_OMM_VERS" version="2.0">
<header><CREATION_DATE/><ORIGINATOR/></header><body><segment><metadata><OBJECT_NAME>ORBCOMM FM27 [+]</OBJECT_NAME><OBJECT_ID>1998-053G</OBJECT_ID><CENTER_NAME>EARTH</CENTER_NAME><REF_FRAME>TEME</REF_FRAME><TIME_SYSTEM>UTC</TIME_SYSTEM><MEAN_ELEMENT_THEORY>SGP4</MEAN_ELEMENT_THEORY></metadata><data><meanElements><EPOCH>2023-11-06T00:31:25.064832</EPOCH><MEAN_MOTION>14.34817851</MEAN_MOTION><ECCENTRICITY>.0000982</ECCENTRICITY><INCLINATION>45.0048</INCLINATION><RA_OF_ASC_NODE>173.3872</RA_OF_ASC_NODE><ARG_OF_PERICENTER>8.1421</ARG_OF_PERICENTER><MEAN_ANOMALY>351.9441</MEAN_ANOMALY></meanElements><tleParameters><EPHEMERIS_TYPE>0</EPHEMERIS_TYPE><CLASSIFICATION_TYPE>U</CLASSIFICATION_TYPE><NORAD_CAT_ID>25481</NORAD_CAT_ID><ELEMENT_SET_NO>999</ELEMENT_SET_NO><REV_AT_EPOCH>31300</REV_AT_EPOCH><BSTAR>.12874E-2</BSTAR><MEAN_MOTION_DOT>.3547E-4</MEAN_MOTION_DOT><MEAN_MOTION_DDOT>0</MEAN_MOTION_DDOT></tleParameters></data></segment></body></omm>
<omm id="CCSDS_OMM_VERS" version="2.0">
<header><CREATION_DATE/><ORIGINATOR/></header><body><segment><metadata><OBJECT_NAME>ORBCOMM FM28 [-]</OBJECT_NAME><OBJECT_ID>1998-053H</OBJECT_ID><CENTER_NAME>EARTH</CENTER_NAME><REF_FRAME>TEME</REF_FRAME><TIME_SYSTEM>UTC</TIME_SYSTEM><MEAN_ELEMENT_THEORY>SGP4</MEAN_ELEMENT_THEORY></metadata><data><meanElements><EPOCH>2023-11-05T17:17:51.238752</EPOCH><MEAN_MOTION>14.35298355</MEAN_MOTION><ECCENTRICITY>.0004182</ECCENTRICITY><INCLINATION>45.0043</INCLINATION><RA_OF_ASC_NODE>113.9362</RA_OF_ASC_NODE><ARG_OF_PERICENTER>216.1410</ARG_OF_PERICENTER><MEAN_ANOMALY>143.9155</MEAN_ANOMALY></meanElements><tleParameters><EPHEMERIS_TYPE>0</EPHEMERIS_TYPE><CLASSIFICATION_TYPE>U</CLASSIFICATION_TYPE><NORAD_CAT_ID>25482</NORAD_CAT_ID><ELEMENT_SET_NO>999</ELEMENT_SET_NO><REV_AT_EPOCH>31358</REV_AT_EPOCH><BSTAR>.9238E-3</BSTAR><MEAN_MOTION_DOT>.253E-4</MEAN_MOTION_DOT><MEAN_MOTION_DDOT>0</MEAN_MOTION_DDOT></tleParameters></data></segment></body></omm>
<omm id="CCSDS_OMM_VERS" version="2.0">
<header><CREATION_DATE/><ORIGINATOR/></header><body><segment><metadata><OBJECT_NAME>ORBCOMM FM30 [-]</OBJECT_NAME><OBJECT_ID>1999-065A</OBJECT_ID><CENTER_NAME>EARTH</CENTER_NAME><REF_FRAME>TEME</REF_FRAME><TIME_SYSTEM>UTC</TIME_SYSTEM><MEAN_ELEMENT_THEORY>SGP4</MEAN_ELEMENT_THEORY></metadata><data><meanElements><EPOCH>2023-11-05T19:39:43.803936</EPOCH><MEAN_MOTION>14.34526587</MEAN_MOTION><ECCENTRICITY>.000768</ECCENTRICITY><INCLINATION>45.0339</INCLINATION><RA_OF_ASC_NODE>352.8491</RA_OF_ASC_NODE><ARG_OF_PERICENTER>289.4099</ARG_OF_PERICENTER><MEAN_ANOMALY>70.5918</MEAN_ANOMALY></meanElements><tleParameters><EPHEMERIS_TYPE>0</EPHEMERIS_TYPE><CLASSIFICATION_TYPE>U</CLASSIFICATION_TYPE><NORAD_CAT_ID>25980</NORAD_CAT_ID><ELEMENT_SET_NO>999</ELEMENT_SET_NO><REV_AT_EPOCH>24974</REV_AT_EPOCH><BSTAR>.68152E-3</BSTAR><MEAN_MOTION_DOT>.18E-4</MEAN_MOTION_DOT><MEAN_MOTION_DDOT>0</MEAN_MOTION_DDOT></tleParameters></data></segment></body></omm>
<omm id="CCSDS_OMM_VERS" version="2.0">
<header><CREATION_DATE/><ORIGINATOR/></header><body><segment><metadata><OBJECT_NAME>ORBCOMM FM31 [-]</OBJECT_NAME><OBJECT_ID>1999-065B</OBJECT_ID><CENTER_NAME>EARTH</CENTER_NAME><REF_FRAME>TEME</REF_FRAME><TIME_SYSTEM>UTC</TIME_SYSTEM><MEAN_ELEMENT_THEORY>SGP4</MEAN_ELEMENT_THEORY></metadata><data><meanElements><EPOCH>2023-11-06T03:13:55.921728</EPOCH><MEAN_MOTION>14.34561459</MEAN_MOTION><ECCENTRICITY>.0004501</ECCENTRICITY><INCLINATION>45.0250</INCLINATION><RA_OF_ASC_NODE>345.2057</RA_OF_ASC_NODE><ARG_OF_PERICENTER>301.1768</ARG_OF_PERICENTER><MEAN_ANOMALY>58.8638</MEAN_ANOMALY></meanElements><tleParameters><EPHEMERIS_TYPE>0</EPHEMERIS_TYPE><CLASSIFICATION_TYPE>U</CLASSIFICATION_TYPE><NORAD_CAT_ID>25981</NORAD_CAT_ID><ELEMENT_SET_NO>999</ELEMENT_SET_NO><REV_AT_EPOCH>25031</REV_AT_EPOCH><BSTAR>.90509E-3</BSTAR><MEAN_MOTION_DOT>.2438E-4</MEAN_MOTION_DOT><MEAN_MOTION_DDOT>0</MEAN_MOTION_DDOT></tleParameters></data></segment></body></omm>
<omm id="CCSDS_OMM_VERS" version="2.0">
<header><CREATION_DATE/><ORIGINATOR/></header><body><segment><metadata><OBJECT_NAME>ORBCOMM FM32 [+]</OBJECT_NAME><OBJECT_ID>1999-065C</OBJECT_ID><CENTER_NAME>EARTH</CENTER_NAME><REF_FRAME>TEME</REF_FRAME><TIME_SYSTEM>UTC</TIME_SYSTEM><MEAN_ELEMENT_THEORY>SGP4</MEAN_ELEMENT_THEORY></metadata><data><meanElements><EPOCH>2023-11-05T23:32:57.577344</EPOCH><MEAN_MOTION>14.33502183</MEAN_MOTION><ECCENTRICITY>.0006446</ECCENTRICITY><INCLINATION>45.0176</INCLINATION><RA_OF_ASC_NODE>358.3633</RA_OF_ASC_NODE><ARG_OF_PERICENTER>308.1538</ARG_OF_PERICENTER><MEAN_ANOMALY>51.8727</MEAN_ANOMALY></meanElements><tleParameters><EPHEMERIS_TYPE>0</EPHEMERIS_TYPE><CLASSIFICATION_TYPE>U</CLASSIFICATION_TYPE><NORAD_CAT_ID>25982</NORAD_CAT_ID><ELEMENT_SET_NO>999</ELEMENT_SET_NO><REV_AT_EPOCH>25010</REV_AT_EPOCH><BSTAR>.12431E-2</BSTAR><MEAN_MOTION_DOT>.3329E-4</MEAN_MOTION_DOT><MEAN_MOTION_DDOT>0</MEAN_MOTION_DDOT></tleParameters></data></segment></body></omm>

</ndm>
